start=new Date('2023-03-27T00:00:00.000Z').valueOf();
sats=[{"COUNTRY_CODE":"US","MEAN_MOTION_DDOT":"0.0000000000000","LAUNCH_DATE":"2022-12-17","ELEMENT_SET_NO":"999","TLE_LINE2":"2 54760  53.2168 207.5481 0001922  51.0723 309.0440 15.08922271 17047","MEAN_MOTION":"15.08922271","APOAPSIS":"540.823","REF_FRAME":"TEME","SEMIMAJOR_AXIS":"6917.629","ECCENTRICITY":"0.00019220","RA_OF_ASC_NODE":"207.5481","BSTAR":"0.00295020000000","TIME_SYSTEM":"UTC","CLASSIFICATION_TYPE":"U","OBJECT_NAME":"STARLINK-5220","TLE_LINE1":"1 54760U 22175C   23085.81988705  .00047085  00000-0  29502-2 0  9997","ARG_OF_PERICENTER":"51.0723","OBJECT_TYPE":"PAYLOAD","NORAD_CAT_ID":"54760","FILE":"3871964","PERIAPSIS":"538.164","INCLINATION":"53.2168","MEAN_MOTION_DOT":"0.00047085","OBJECT_ID":"2022-175C","MEAN_ELEMENT_THEORY":"SGP4","PERIOD":"95.432","EPHEMERIS_TYPE":"0","CENTER_NAME":"EARTH","GP_ID":"228920543","REV_AT_EPOCH":"1704","EPOCH":"2023-03-26T19:40:38.241120","DECAY_DATE":null,"SITE":"AFETR","MEAN_ANOMALY":"309.0440","RCS_SIZE":"LARGE"},{"BSTAR":"0.00168260000000","RA_OF_ASC_NODE":"207.5648","ECCENTRICITY":"0.00015180","SEMIMAJOR_AXIS":"6917.875","REF_FRAME":"TEME","APOAPSIS":"540.790","MEAN_MOTION":"15.08841745","TLE_LINE2":"2 54761  53.2176 207.5648 0001518  92.4549 267.6617 15.08841745 17049","ELEMENT_SET_NO":"999","LAUNCH_DATE":"2022-12-17","MEAN_MOTION_DDOT":"0.0000000000000","COUNTRY_CODE":"US","INCLINATION":"53.2176","PERIAPSIS":"538.690","FILE":"3871964","NORAD_CAT_ID":"54761","ARG_OF_PERICENTER":"92.4549","OBJECT_TYPE":"PAYLOAD","OBJECT_NAME":"STARLINK-5202","TLE_LINE1":"1 54761U 22175D   23085.82357464  .00026593  00000-0  16826-2 0  9997","TIME_SYSTEM":"UTC","CLASSIFICATION_TYPE":"U","CENTER_NAME":"EARTH","EPHEMERIS_TYPE":"0","PERIOD":"95.437","MEAN_ELEMENT_THEORY":"SGP4","OBJECT_ID":"2022-175D","MEAN_MOTION_DOT":"0.00026593","RCS_SIZE":"LARGE","MEAN_ANOMALY":"267.6617","SITE":"AFETR","DECAY_DATE":null,"EPOCH":"2023-03-26T19:45:56.848896","REV_AT_EPOCH":"1704","GP_ID":"228921795"},{"NORAD_CAT_ID":"54762","INCLINATION":"53.2183","FILE":"3871964","PERIAPSIS":"538.384","CLASSIFICATION_TYPE":"U","TIME_SYSTEM":"UTC","OBJECT_TYPE":"PAYLOAD","ARG_OF_PERICENTER":"71.0706","OBJECT_NAME":"STARLINK-5214","TLE_LINE1":"1 54762U 22175E   23085.61473912 -.00000774  00000-0 -30507-4 0  9991","SEMIMAJOR_AXIS":"6917.777","REF_FRAME":"TEME","APOAPSIS":"540.901","BSTAR":"-0.00003050700000","RA_OF_ASC_NODE":"208.3966","ECCENTRICITY":"0.00018190","MEAN_MOTION":"15.08873671","TLE_LINE2":"2 54762  53.2183 208.3966 0001819  71.0706 289.0484 15.08873671 17012","ELEMENT_SET_NO":"999","LAUNCH_DATE":"2022-12-17","MEAN_MOTION_DDOT":"0.0000000000000","COUNTRY_CODE":"US","SITE":"AFETR","MEAN_ANOMALY":"289.0484","DECAY_DATE":null,"EPOCH":"2023-03-26T14:45:13.459968","RCS_SIZE":"LARGE","GP_ID":"228921545","REV_AT_EPOCH":"1701","PERIOD":"95.435","MEAN_ELEMENT_THEORY":"SGP4","CENTER_NAME":"EARTH","EPHEMERIS_TYPE":"0","MEAN_MOTION_DOT":"-0.00000774","OBJECT_ID":"2022-175E"},{"NORAD_CAT_ID":"54763","PERIAPSIS":"538.308","FILE":"3871964","INCLINATION":"53.2183","CLASSIFICATION_TYPE":"U","TIME_SYSTEM":"UTC","OBJECT_NAME":"STARLINK-5191","TLE_LINE1":"1 54763U 22175F   23085.61749207  .00040556  00000-0  25487-2 0  9994","OBJECT_TYPE":"PAYLOAD","ARG_OF_PERICENTER":"55.5140","APOAPSIS":"540.922","SEMIMAJOR_AXIS":"6917.750","REF_FRAME":"TEME","RA_OF_ASC_NODE":"208.4201","ECCENTRICITY":"0.00018890","BSTAR":"0.00254870000000","LAUNCH_DATE":"2022-12-17","COUNTRY_CODE":"US","MEAN_MOTION_DDOT":"0.0000000000000","TLE_LINE2":"2 54763  53.2183 208.4201 0001889  55.5140 304.6030 15.08882660 17011","ELEMENT_SET_NO":"999","MEAN_MOTION":"15.08882660","DECAY_DATE":null,"EPOCH":"2023-03-26T14:49:11.314848","SITE":"AFETR","MEAN_ANOMALY":"304.6030","RCS_SIZE":"LARGE","GP_ID":"228920794","REV_AT_EPOCH":"1701","MEAN_ELEMENT_THEORY":"SGP4","PERIOD":"95.435","CENTER_NAME":"EARTH","EPHEMERIS_TYPE":"0","MEAN_MOTION_DOT":"0.00040556","OBJECT_ID":"2022-175F"},{"ARG_OF_PERICENTER":"127.9847","OBJECT_TYPE":"PAYLOAD","OBJECT_NAME":"STARLINK-5458","TLE_LINE1":"1 54764U 22175G   23085.80882719 -.00009690  00000-0 -59220-3 0  9991","CLASSIFICATION_TYPE":"U","TIME_SYSTEM":"UTC","INCLINATION":"53.2171","FILE":"3871964","PERIAPSIS":"539.051","NORAD_CAT_ID":"54764","MEAN_MOTION":"15.08801157","TLE_LINE2":"2 54764  53.2171 207.4706 0001176 127.9847 232.1252 15.08801157 17041","ELEMENT_SET_NO":"999","COUNTRY_CODE":"US","MEAN_MOTION_DDOT":"0.0000000000000","LAUNCH_DATE":"2022-12-17","BSTAR":"-0.00059220000000","ECCENTRICITY":"0.00011760","RA_OF_ASC_NODE":"207.4706","SEMIMAJOR_AXIS":"6917.999","REF_FRAME":"TEME","APOAPSIS":"540.678","REV_AT_EPOCH":"1704","GP_ID":"228921044","RCS_SIZE":"LARGE","SITE":"AFETR","MEAN_ANOMALY":"232.1252","EPOCH":"2023-03-26T19:24:42.669216","DECAY_DATE":null,"OBJECT_ID":"2022-175G","MEAN_MOTION_DOT":"-0.00009690","EPHEMERIS_TYPE":"0","CENTER_NAME":"EARTH","PERIOD":"95.440","MEAN_ELEMENT_THEORY":"SGP4"},{"NORAD_CAT_ID":"54765","INCLINATION":"53.2173","FILE":"3871964","PERIAPSIS":"539.032","CLASSIFICATION_TYPE":"U","TIME_SYSTEM":"UTC","OBJECT_TYPE":"PAYLOAD","ARG_OF_PERICENTER":"126.1580","TLE_LINE1":"1 54765U 22175H   23085.81251004  .00006412  00000-0  42078-3 0  9990","OBJECT_NAME":"STARLINK-5466","SEMIMAJOR_AXIS":"6917.932","REF_FRAME":"TEME","APOAPSIS":"540.562","BSTAR":"0.00042078000000","RA_OF_ASC_NODE":"207.4930","ECCENTRICITY":"0.00011060","ELEMENT_SET_NO":"999","TLE_LINE2":"2 54765  53.2173 207.4930 0001106 126.1580 233.9514 15.08823096 17047","MEAN_MOTION":"15.08823096","LAUNCH_DATE":"2022-12-17","COUNTRY_CODE":"US","MEAN_MOTION_DDOT":"0.0000000000000","SITE":"AFETR","MEAN_ANOMALY":"233.9514","DECAY_DATE":null,"EPOCH":"2023-03-26T19:30:00.867456","RCS_SIZE":"LARGE","GP_ID":"228921295","REV_AT_EPOCH":"1704","PERIOD":"95.439","MEAN_ELEMENT_THEORY":"SGP4","CENTER_NAME":"EARTH","EPHEMERIS_TYPE":"0","MEAN_MOTION_DOT":"0.00006412","OBJECT_ID":"2022-175H"},{"ARG_OF_PERICENTER":"44.4746","OBJECT_TYPE":"PAYLOAD","OBJECT_NAME":"STARLINK-5471","TLE_LINE1":"1 54766U 22175J   23085.80147287  .00054890  00000-0  34338-2 0  9999","CLASSIFICATION_TYPE":"U","TIME_SYSTEM":"UTC","INCLINATION":"53.2161","FILE":"3871964","PERIAPSIS":"538.239","NORAD_CAT_ID":"54766","TLE_LINE2":"2 54766  53.2161 207.4357 0001874  44.4746 315.6397 15.08908605 17043","MEAN_MOTION":"15.08908605","ELEMENT_SET_NO":"999","COUNTRY_CODE":"US","MEAN_MOTION_DDOT":"0.0000000000000","LAUNCH_DATE":"2022-12-17","BSTAR":"0.00343380000000","ECCENTRICITY":"0.00018740","RA_OF_ASC_NODE":"207.4357","SEMIMAJOR_AXIS":"6917.671","REF_FRAME":"TEME","APOAPSIS":"540.832","REV_AT_EPOCH":"1704","GP_ID":"228922046","RCS_SIZE":"LARGE","MEAN_ANOMALY":"315.6397","SITE":"AFETR","EPOCH":"2023-03-26T19:14:07.255968","DECAY_DATE":null,"OBJECT_ID":"2022-175J","MEAN_MOTION_DOT":"0.00054890","EPHEMERIS_TYPE":"0","CENTER_NAME":"EARTH","PERIOD":"95.433","MEAN_ELEMENT_THEORY":"SGP4"},{"DECAY_DATE":null,"EPOCH":"2023-03-26T14:22:39.864864","SITE":"AFETR","MEAN_ANOMALY":"285.1186","RCS_SIZE":"LARGE","GP_ID":"228920294","REV_AT_EPOCH":"1701","MEAN_ELEMENT_THEORY":"SGP4","PERIOD":"95.435","CENTER_NAME":"EARTH","EPHEMERIS_TYPE":"0","MEAN_MOTION_DOT":"0.00044588","OBJECT_ID":"2022-175K","NORAD_CAT_ID":"54767","FILE":"3871964","PERIAPSIS":"538.604","INCLINATION":"53.2168","TIME_SYSTEM":"UTC","CLASSIFICATION_TYPE":"U","TLE_LINE1":"1 54767U 22175K   23085.59907251  .00044588  00000-0  27986-2 0  9995","OBJECT_NAME":"STARLINK-5472","OBJECT_TYPE":"PAYLOAD","ARG_OF_PERICENTER":"74.9967","APOAPSIS":"540.617","SEMIMAJOR_AXIS":"6917.745","REF_FRAME":"TEME","RA_OF_ASC_NODE":"208.2960","ECCENTRICITY":"0.00014550","BSTAR":"0.00279860000000","LAUNCH_DATE":"2022-12-17","COUNTRY_CODE":"US","MEAN_MOTION_DDOT":"0.0000000000000","ELEMENT_SET_NO":"999","TLE_LINE2":"2 54767  53.2168 208.2960 0001455  74.9967 285.1186 15.08884242 17012","MEAN_MOTION":"15.08884242"},{"LAUNCH_DATE":"2022-12-17","COUNTRY_CODE":"US","MEAN_MOTION_DDOT":"0.0000000000000","TLE_LINE2":"2 54768  53.2199 193.7700 0001526 109.4651 250.6506 15.08859281 17210","MEAN_MOTION":"15.08859281","ELEMENT_SET_NO":"999","RA_OF_ASC_NODE":"193.7700","ECCENTRICITY":"0.00015260","BSTAR":"0.00005179900000","APOAPSIS":"540.742","REF_FRAME":"TEME","SEMIMAJOR_AXIS":"6917.821","OBJECT_NAME":"STARLINK-5444","TLE_LINE1":"1 54768U 22175L   23085.55446302  .00000537  00000-0  51799-4 0  9994","ARG_OF_PERICENTER":"109.4651","OBJECT_TYPE":"PAYLOAD","TIME_SYSTEM":"UTC","CLASSIFICATION_TYPE":"U","FILE":"3871964","PERIAPSIS":"538.631","INCLINATION":"53.2199","NORAD_CAT_ID":"54768","OBJECT_ID":"2022-175L","MEAN_MOTION_DOT":"0.00000537","CENTER_NAME":"EARTH","EPHEMERIS_TYPE":"0","MEAN_ELEMENT_THEORY":"SGP4","PERIOD":"95.436","REV_AT_EPOCH":"1721","GP_ID":"228920544","RCS_SIZE":"LARGE","DECAY_DATE":null,"EPOCH":"2023-03-26T13:18:25.604928","SITE":"AFETR","MEAN_ANOMALY":"250.6506"},{"MEAN_MOTION_DDOT":"0.0000000000000","COUNTRY_CODE":"US","LAUNCH_DATE":"2022-12-17","TLE_LINE2":"2 54769  53.2163 207.4513 0001364  52.9235 307.1882 15.08911324 17040","ELEMENT_SET_NO":"999","MEAN_MOTION":"15.08911324","ECCENTRICITY":"0.00013640","RA_OF_ASC_NODE":"207.4513","BSTAR":"0.00352070000000","APOAPSIS":"540.471","SEMIMAJOR_AXIS":"6917.662","REF_FRAME":"TEME","TLE_LINE1":"1 54769U 22175M   23085.80515446  .00056302  00000-0  35207-2 0  9994","OBJECT_NAME":"STARLINK-5404","ARG_OF_PERICENTER":"52.9235","OBJECT_TYPE":"PAYLOAD","CLASSIFICATION_TYPE":"U","TIME_SYSTEM":"UTC","FILE":"3871964","PERIAPSIS":"538.584","INCLINATION":"53.2163","NORAD_CAT_ID":"54769","OBJECT_ID":"2022-175M","MEAN_MOTION_DOT":"0.00056302","EPHEMERIS_TYPE":"0","CENTER_NAME":"EARTH","MEAN_ELEMENT_THEORY":"SGP4","PERIOD":"95.433","REV_AT_EPOCH":"1704","GP_ID":"228921796","RCS_SIZE":"LARGE","EPOCH":"2023-03-26T19:19:25.345344","DECAY_DATE":null,"SITE":"AFETR","MEAN_ANOMALY":"307.1882"}];
